LEMUR-2-JENNYBARNA      
1 42753U 17019C   17228.70390189  .00001336  00000-0  61608-4 0  9994
2 42753  51.6416 110.3103 0010646 194.0934 165.9750 15.27657290 10493
LEMUR-2-ROBMOORE        
1 42754U 17019D   17228.77468398  .00000628  00000-0  35998-4 0  9996
2 42754  51.6419 110.0300 0010591 197.6692 162.3920 15.27497423 10537
LEMUR-2-SPIROVISION     
1 42755U 17019E   17229.68907644  .00001248  00000-0  58575-4 0  9995
2 42755  51.6413 105.6339 0010608 200.5166 159.5388 15.27562267 10561
UCLSAT                  
1 42765U 17036A   17229.21439969  .00001398  00000-0  66468-4 0  9990
2 42765  97.4451 288.3367 0013645  65.2753 294.9901 15.20793208  8492
LITUANICASAT-2          
1 42768U 17036D   17229.38689678  .00002210  00000-0  10634-3 0  9992
2 42768  97.4453 288.4119 0017606  53.5942 306.6914 15.19706558  8398
INFLATESAIL             
1 42770U 17036F   17229.74979459  .00493836  00000-0  12123-1 0  9995
2 42770  97.4473 289.4603 0007240 140.3919 219.7856 15.38683746  8421
LEMUR-2-SHAINAJOHL      
1 42771U 17036G   17229.38085958  .00001714  00000-0  82872-4 0  9999
2 42771  97.4453 288.4211 0016693  53.2873 306.9892 15.19859216  8332
LEMUR-2-XUENITERENCE    
1 42772U 17036H   17228.91800636  .00001524  00000-0  73959-4 0  9991
2 42772  97.4452 287.9684 0016400  54.4558 305.8203 15.19910090  8263
LEMUR-2-LUCYBRYCE       
1 42773U 17036J   17229.11364642  .00001946  00000-0  93365-4 0  9998
2 42773  97.4453 288.1663 0016164  53.8057 306.4670 15.19972853  8292
LEMUR-2-KUNGFOO         
1 42774U 17036K   17228.91554703  .00001502  00000-0  72825-4 0  9991
2 42774  97.4455 287.9740 0016157  54.1955 306.0779 15.19967374  8255
AALTO-1                 
1 42775U 17036L   17229.11003539  .00000893  00000-0  44518-4 0  9991
2 42775  97.4453 288.1720 0015750  52.4668 307.7995 15.20015335  8290
URSA MAIOR              
1 42776U 17036M   17228.91120128  .00000916  00000-0  45566-4 0  9993
2 42776  97.4456 287.9806 0015625  53.5866 306.6808 15.20053387  8266
COMPASS 2               
1 42777U 17036N   17229.75702242  .00001806  00000-0  85920-4 0  9997
2 42777  97.4464 288.8452 0014725  55.5287 304.7337 15.20370190  8385
LEMUR-2-LYNSEY-SYMO     
1 42779U 17036Q   17228.69693664  .00001990  00000-0  93802-4 0  9990
2 42779  97.4458 287.8084 0014442  65.1241 295.1494 15.20573941  8211
LEMUR-2-LISASAURUS      
1 42780U 17036R   17228.82773797  .00001583  00000-0  75279-4 0  9999
2 42780  97.4454 287.9373 0014349  64.5151 295.7566 15.20580488  8243
LEMUR-2-SAM-AMELIA      
1 42781U 17036S   17228.82678688  .00002040  00000-0  95968-4 0  9999
2 42781  97.4454 287.9378 0014259  64.9373 295.3341 15.20626495  8234
LEMUR-2-MCPEAKE         
1 42782U 17036T   17228.82580021  .00001873  00000-0  88306-4 0  9994
2 42782  97.4456 287.9406 0014128  64.8901 295.3799 15.20651014  8232
DIAMOND RED             
1 42783U 17036U   17228.89118149  .00001134  00000-0  54782-4 0  9991
2 42783  97.4454 288.0050 0014223  65.8627 294.4094 15.20619881  8256
PEGASUS                 
1 42784U 17036V   17229.74551845  .00001332  00000-0  63683-4 0  9991
2 42784  97.4454 288.8523 0014142  63.3857 296.8825 15.20659410  8382
DIAMOND GREEN           
1 42785U 17036W   17229.15315712  .00000863  00000-0  42397-4 0  9995
2 42785  97.4454 288.2681 0014120  65.2536 295.0167 15.20644862  8287
DIAMOND BLUE            
1 42786U 17036X   17229.15155048  .00000823  00000-0  40525-4 0  9997
2 42786  97.4454 288.2696 0013963  65.5721 294.6969 15.20680560  8298
NUDTSAT                 
1 42787U 17036Y   17229.14922947  .00001801  00000-0  84679-4 0  9992
2 42787  97.4453 288.2721 0013827  65.8362 294.4318 15.20801105  8139
SUCHAI                  
1 42788U 17036Z   17229.21575439  .00001490  00000-0  70676-4 0  9997
2 42788  97.4453 288.3357 0013826  65.4067 294.8607 15.20761879  8377
SKCUBE                  
1 42789U 17036AA  17228.95108164  .00001375  00000-0  65413-4 0  9990
2 42789  97.4452 288.0771 0013654  66.2430 294.0236 15.20797835  8254
VZLUSAT-1               
1 42790U 17036AB  17228.81681256  .00001621  00000-0  76365-4 0  9997
2 42790  97.4450 287.9487 0013397  67.2268 293.0382 15.20883928  8238
ROBUSTA-1B              
1 42792U 17036AD  17229.40724252  .00001477  00000-0  69797-4 0  9999
2 42792  97.4450 288.5359 0013214  66.0825 294.1793 15.20923384  8339
CICERO 6                
1 42793U 17036AE  17229.20276260  .00001020  00000-0  48916-4 0  9993
2 42793  97.4449 288.3498 0012298  67.6221 292.6316 15.21095866  8372
D-SAT                   
1 42794U 17036AF  17229.20013458  .00000863  00000-0  41802-4 0  9993
2 42794  97.4447 288.3516 0011427  65.5325 294.7101 15.21160818  8293
TOKI                    
1 42820U 98067MU  17229.79964392  .00012208  00000-0  18068-3 0  9995
2 42820  51.6399  90.8423 0004009 116.7122 243.4280 15.55710097  6447
GHANASAT-1              
1 42821U 98067MV  17229.80079080  .00011749  00000-0  17452-3 0  9994
2 42821  51.6399  90.8502 0004058 118.1733 241.9669 15.55655031  6422
MAZAALAI (NUMSAT-1)     
1 42822U 98067MW  17229.80142559  .00011979  00000-0  17790-3 0  9997
2 42822  51.6400  90.8546 0004093 120.3881 239.7515 15.55638306  6423
BRAC ONNESHA            
1 42823U 98067MX  17229.80260814  .00012162  00000-0  18065-3 0  9994
2 42823  51.6402  90.8636 0007618 134.9203 225.2408 15.55598596  6428
NIGERIAEDUSAT-1         
1 42824U 98067MY  17229.03312118  .00010193  00000-0  15301-3 0  9997
2 42824  51.6403  94.7243 0007496 132.9165 227.2456 15.55521995  6295
LEMUR-2-GREENBERG       
1 42837U 17042N   17229.36029286  .00000479  00000-0  53791-4 0  9994
2 42837  97.6112 137.8615 0014585 124.1127 236.1478 14.90990912  5071
LEMUR-2-ANDIS           
1 42838U 17042P   17229.35986128  .00000735  00000-0  79587-4 0  9997
2 42838  97.6113 137.8616 0014647 124.4797 235.7807 14.91015519  5072
LEMUR-2-MONSON          
1 42839U 17042Q   17229.76005585  .00000491  00000-0  54895-4 0  9996
2 42839  97.6111 138.2531 0014386 122.3906 237.8707 14.91114608  5139
LEMUR-2-FURIAUS         
1 42840U 17042R   17229.75944751  .00000641  00000-0  69937-4 0  9994
2 42840  97.6110 138.2536 0014441 122.4541 237.8077 14.91145312  5128
LEMUR-2-PETERG          
1 42841U 17042S   17228.95113824  .00000432  00000-0  48726-4 0  9996
2 42841  97.6113 137.4808 0014164 123.4746 236.7829 14.91278343  5017
LEMUR-2-DEMBITZ         
1 42842U 17042T   17229.15194715  .00000453  00000-0  50812-4 0  9990
2 42842  97.6111 137.6752 0014152 123.3394 236.9181 14.91298697  5041
LEMUR-2-ZACHARY         
1 42845U 17042W   17228.94552822  .00000394  00000-0  44645-4 0  9997
2 42845  97.6061 137.4629 0014399 128.9344 231.3161 14.91526784  5002
FLOCK 2K-03             
1 42850U 17042AB  17229.42450232  .00002662  00000-0  87068-4 0  9995
2 42850  96.9993 136.5875 0014040 126.4826 233.7713 15.32438968  5032
FLOCK 2K-04             
1 42851U 17042AC  17229.29463068  .00001751  00000-0  58176-4 0  9998
2 42851  96.9997 136.4640 0013574 127.1430 233.1055 15.32374468  5011
FLOCK 2K-01             
1 42852U 17042AD  17229.68581543  .00003041  00000-0  99227-4 0  9997
2 42852  96.9996 136.8351 0013646 125.3643 234.8878 15.32412442  5072
FLOCK 2K-02             
1 42853U 17042AE  17229.75082417  .00001640  00000-0  54521-4 0  9993
2 42853  96.9999 136.8986 0013536 124.6177 235.6344 15.32440242  5089
FLOCK 2K-47             
1 42854U 17042AF  17229.16242960  .00006934  00000-0  22273-3 0  9999
2 42854  96.9992 136.3414 0013549 126.1645 234.0853 15.32486851  4998
FLOCK 2K-48             
1 42855U 17042AG  17229.68462625  .00002163  00000-0  71137-4 0  9993
2 42855  96.9998 136.8372 0013467 124.4180 235.8338 15.32460480  5074
FLOCK 2K-45             
1 42856U 17042AH  17229.29203109  .00004236  00000-0  13680-3 0  9992
2 42856  96.9995 136.4668 0013578 124.9713 235.2807 15.32531451  5012
FLOCK 2K-24             
1 42857U 17042AJ  17229.16090914  .00001896  00000-0  62492-4 0  9992
2 42857  96.9993 136.3429 0013444 125.1034 235.1471 15.32525952  4997
FLOCK 2K-46             
1 42858U 17042AK  17229.81371130  .00003316  00000-0  10751-3 0  9996
2 42858  96.9997 136.9629 0013669 123.0900 237.1658 15.32553519  5099
FLOCK 2K-23             
1 42859U 17042AL  17229.29128047  .00003944  00000-0  12742-3 0  9995
2 42859  96.9996 136.4684 0013578 124.7902 235.4621 15.32560241  5017
FLOCK 2K-21             
1 42860U 17042AM  17229.74753394  .00003685  00000-0  11904-3 0  9997
2 42860  96.9997 136.9018 0013600 122.5164 237.7395 15.32606673  5088
FLOCK 2K-22             
1 42861U 17042AN  17229.81238058  .00006382  00000-0  20425-3 0  9996
2 42861  96.9998 136.9647 0013663 122.4422 237.8144 15.32633029  5092
FLOCK 2K-07             
1 42862U 17042AP  17229.28924453  .00007032  00000-0  22470-3 0  9994
2 42862  96.9996 136.4711 0013761 123.5953 236.6605 15.32649574  5022
FLOCK 2K-08             
1 42863U 17042AQ  17229.74560102  .00003806  00000-0  12249-3 0  9991
2 42863  96.9993 136.9029 0013846 122.0270 238.2320 15.32703214  5087
FLOCK 2K-05             
1 42864U 17042AR  17229.02706082  .00006565  00000-0  20952-3 0  9997
2 42864  96.9993 136.2248 0013844 124.4574 235.7979 15.32710153  4974
FLOCK 2K-40             
1 42865U 17042AS  17229.28782276  .00006943  00000-0  22130-3 0  9995
2 42865  96.9994 136.4727 0013820 123.7257 236.5305 15.32733712  5018
FLOCK 2K-39             
1 42866U 17042AT  17229.67949425  .00008156  00000-0  25946-3 0  9996
2 42866  96.9994 136.8430 0013875 122.4052 237.8535 15.32739658  5073
FLOCK 2K-37             
1 42867U 17042AU  17229.41825089  .00007847  00000-0  24972-3 0  9992
2 42867  96.9994 136.5962 0013793 123.2564 237.0003 15.32742664  5036
FLOCK 2K-38             
1 42868U 17042AV  17228.96060516  .00006559  00000-0  20904-3 0  9998
2 42868  96.9995 136.1648 0013828 124.5725 235.6825 15.32757819  4962
